{
  "type": "FeatureCollection",
  "features": [
    {
      "type": "Feature",
      "properties": {
        "norad_id": 65731,
        "name": "1998-067XK",
        "group": "stations",
        "lat": -36.434971598413206,
        "lon": -32.741751343803806,
        "alt_km": 370.2786784355267,
        "timestamp": "2025-12-17T19:34:06.822725+00:00",
        "meta_object_name": "1998-067XK",
        "meta_object_id": "1998-067XK",
        "meta_epoch": "2025-12-17T07:52:39.640512",
        "meta_mean_motion": 15.66619236,
        "meta_eccentricity": 0.0004756,
        "meta_inclination": 51.6284,
        "meta_ra_of_asc_node": 113.9366,
        "meta_arg_of_pericenter": 276.4225,
        "meta_mean_anomaly": 83.6229,
        "meta_ephemeris_type": 0,
        "meta_classification_type": "U",
        "meta_norad_cat_id": 65731,
        "meta_element_set_no": 999,
        "meta_rev_at_epoch": 1386,
        "meta_bstar": 0.00081077835,
        "meta_mean_motion_dot": 0.00087081,
        "meta_mean_motion_ddot": 0,
        "tle_line1": "1 65731U 98067XK  25351.32823658  .00087081  00000+0  81078-3 0  9995",
        "tle_line2": "2 65731  51.6284 113.9366 0004756 276.4225  83.6229 15.66619236 13862"
      },
      "geometry": {
        "type": "Point",
        "coordinates": [
          -32.741751343803806,
          -36.434971598413206
        ]
      }
    },
    {
      "type": "Feature",
      "properties": {
        "norad_id": 65732,
        "name": "RSP-03",
        "group": "stations",
        "lat": -49.879432835126465,
        "lon": 0.7466631986031925,
        "alt_km": 360.3386872052615,
        "timestamp": "2025-12-17T19:34:06.822735+00:00",
        "meta_object_name": "RSP-03",
        "meta_object_id": "1998-067XL",
        "meta_epoch": "2025-12-16T14:58:29.275680",
        "meta_mean_motion": 15.69615447,
        "meta_eccentricity": 0.00056224,
        "meta_inclination": 51.6264,
        "meta_ra_of_asc_node": 116.7219,
        "meta_arg_of_pericenter": 277.262,
        "meta_mean_anomaly": 82.7738,
        "meta_ephemeris_type": 0,
        "meta_classification_type": "U",
        "meta_norad_cat_id": 65732,
        "meta_element_set_no": 999,
        "meta_rev_at_epoch": 1377,
        "meta_bstar": 0.00094839264,
        "meta_mean_motion_dot": 0.00115729,
        "meta_mean_motion_ddot": 0,
        "tle_line1": "1 65732U 98067XL  25350.62394995  .00115729  00000+0  94839-3 0  9995",
        "tle_line2": "2 65732  51.6264 116.7219 0005622 277.2620  82.7738 15.69615447 13778"
      },
      "geometry": {
        "type": "Point",
        "coordinates": [
          0.7466631986031925,
          -49.879432835126465
        ]
      }
    },
    {
      "type": "Feature",
      "properties": {
        "norad_id": 65733,
        "name": "GHS-01",
        "group": "stations",
        "lat": -44.297144788025506,
        "lon": 58.41295745311079,
        "alt_km": 338.29832444899057,
        "timestamp": "2025-12-17T19:34:06.822745+00:00",
        "meta_object_name": "GHS-01",
        "meta_object_id": "1998-067XM",
        "meta_epoch": "2025-12-17T01:34:57.772416",
        "meta_mean_motion": 15.7670504,
        "meta_eccentricity": 0.00077979,
        "meta_inclination": 51.6275,
        "meta_ra_of_asc_node": 112.9208,
        "meta_arg_of_pericenter": 309.7819,
        "meta_mean_anomaly": 50.2494,
        "meta_ephemeris_type": 0,
        "meta_classification_type": "U",
        "meta_norad_cat_id": 65733,
        "meta_element_set_no": 999,
        "meta_rev_at_epoch": 1386,
        "meta_bstar": 0.0011963586,
        "meta_mean_motion_dot": 0.00200259,
        "meta_mean_motion_ddot": 0,
        "tle_line1": "1 65733U 98067XM  25351.06594644  .00200259  00000+0  11964-2 0  9998",
        "tle_line2": "2 65733  51.6275 112.9208 0007797 309.7819  50.2494 15.76705040 13869"
      },
      "geometry": {
        "type": "Point",
        "coordinates": [
          58.41295745311079,
          -44.297144788025506
        ]
      }
    },
    {
      "type": "Feature",
      "properties": {
        "norad_id": 65941,
        "name": "YOTSUBA-KULOVER",
        "group": "stations",
        "lat": -38.497861873182416,
        "lon": -26.483421300808295,
        "alt_km": 391.0059465478271,
        "timestamp": "2025-12-17T19:34:06.822757+00:00",
        "meta_object_name": "YOTSUBA-KULOVER",
        "meta_object_id": "1998-067XN",
        "meta_epoch": "2025-12-16T14:54:10.853280",
        "meta_mean_motion": 15.59985033,
        "meta_eccentricity": 0.00014592,
        "meta_inclination": 51.6282,
        "meta_ra_of_asc_node": 120.4613,
        "meta_arg_of_pericenter": 292.17,
        "meta_mean_anomaly": 67.9139,
        "meta_ephemeris_type": 0,
        "meta_classification_type": "U",
        "meta_norad_cat_id": 65941,
        "meta_element_set_no": 999,
        "meta_rev_at_epoch": 1046,
        "meta_bstar": 0.00069919558,
        "meta_mean_motion_dot": 0.00057497,
        "meta_mean_motion_ddot": 0,
        "tle_line1": "1 65941U 98067XN  25350.62095895  .00057497  00000+0  69920-3 0  9994",
        "tle_line2": "2 65941  51.6282 120.4613 0001459 292.1700  67.9139 15.59985033 10462"
      },
      "geometry": {
        "type": "Point",
        "coordinates": [
          -26.483421300808295,
          -38.497861873182416
        ]
      }
    },
    {
      "type": "Feature",
      "properties": {
        "norad_id": 65942,
        "name": "BOTAN",
        "group": "stations",
        "lat": -51.53183769305841,
        "lon": 19.4051186051416,
        "alt_km": 379.0446837873169,
        "timestamp": "2025-12-17T19:34:06.822768+00:00",
        "meta_object_name": "BOTAN",
        "meta_object_id": "1998-067XP",
        "meta_epoch": "2025-12-17T01:33:35.223264",
        "meta_mean_motion": 15.63787081,
        "meta_eccentricity": 0.00028324,
        "meta_inclination": 51.6279,
        "meta_ra_of_asc_node": 117.4271,
        "meta_arg_of_pericenter": 275.6508,
        "meta_mean_anomaly": 84.4163,
        "meta_ephemeris_type": 0,
        "meta_classification_type": "U",
        "meta_norad_cat_id": 65942,
        "meta_element_set_no": 999,
        "meta_rev_at_epoch": 1054,
        "meta_bstar": 0.0010066174,
        "meta_mean_motion_dot": 0.00096733,
        "meta_mean_motion_ddot": 0,
        "tle_line1": "1 65942U 98067XP  25351.06499101  .00096733  00000+0  10066-2 0  9994",
        "tle_line2": "2 65942  51.6279 117.4271 0002832 275.6508  84.4163 15.63787081 10541"
      },
      "geometry": {
        "type": "Point",
        "coordinates": [
          19.4051186051416,
          -51.53183769305841
        ]
      }
    },
    {
      "type": "Feature",
      "properties": {
        "norad_id": 65943,
        "name": "E-KAGAKU-1",
        "group": "stations",
        "lat": -38.07064317176202,
        "lon": -27.185761346729596,
        "alt_km": 390.45179404854116,
        "timestamp": "2025-12-17T19:34:06.822778+00:00",
        "meta_object_name": "E-KAGAKU-1",
        "meta_object_id": "1998-067XQ",
        "meta_epoch": "2025-12-15T15:50:32.577792",
        "meta_mean_motion": 15.59851021,
        "meta_eccentricity": 0.00016366,
        "meta_inclination": 51.6292,
        "meta_ra_of_asc_node": 125.299,
        "meta_arg_of_pericenter": 221.4661,
        "meta_mean_anomaly": 138.6208,
        "meta_ephemeris_type": 0,
        "meta_classification_type": "U",
        "meta_norad_cat_id": 65943,
        "meta_element_set_no": 999,
        "meta_rev_at_epoch": 1031,
        "meta_bstar": 0.0006409113,
        "meta_mean_motion_dot": 0.00052357,
        "meta_mean_motion_ddot": 0,
        "tle_line1": "1 65943U 98067XQ  25349.66009928  .00052357  00000+0  64091-3 0  9994",
        "tle_line2": "2 65943  51.6292 125.2990 0001636 221.4661 138.6208 15.59851021 10310"
      },
      "geometry": {
        "type": "Point",
        "coordinates": [
          -27.185761346729596,
          -38.07064317176202
        ]
      }
    },
    {
      "type": "Feature",
      "properties": {
        "norad_id": 66052,
        "name": "HRC MONOBLOCK CAMERA",
        "group": "stations",
        "lat": 44.86568489834127,
        "lon": -115.86613779573686,
        "alt_km": 397.5082327624741,
        "timestamp": "2025-12-17T19:34:06.822789+00:00",
        "meta_object_name": "HRC MONOBLOCK CAMERA",
        "meta_object_id": "1998-067XR",
        "meta_epoch": "2025-12-17T08:16:19.927776",
        "meta_mean_motion": 15.5446421,
        "meta_eccentricity": 0.00027548,
        "meta_inclination": 51.6293,
        "meta_ra_of_asc_node": 118.5398,
        "meta_arg_of_pericenter": 204.8669,
        "meta_mean_anomaly": 155.219,
        "meta_ephemeris_type": 0,
        "meta_classification_type": "U",
        "meta_norad_cat_id": 66052,
        "meta_element_set_no": 999,
        "meta_rev_at_epoch": 955,
        "meta_bstar": 0.00046391624,
        "meta_mean_motion_dot": 0.0003073,
        "meta_mean_motion_ddot": 0,
        "tle_line1": "1 66052U 98067XR  25351.34467509  .00030730  00000+0  46392-3 0  9992",
        "tle_line2": "2 66052  51.6293 118.5398 0002754 204.8669 155.2190 15.54464210  9559"
      },
      "geometry": {
        "type": "Point",
        "coordinates": [
          -115.86613779573686,
          44.86568489834127
        ]
      }
    }
  ]
}